GPS_BIIF-2 -PRN-01
1 37753U 11036A   23124.62059920 -.00000077  00000+0  00000+0 0  9994
2 37753  56.7168  16.2239 0125920  54.2590 330.7599  2.00567525 86425
